0 COSMOS 1729
1 16527U 86011A   13288.07967812  .00000091  00000-0  00000+0 0  2418
2 16527 069.9630 005.7363 5415765 166.4349 216.7052 02.00691359203032
0 COSMOS 1729
1 16527U 86011A   13295.08713341  .00000093  00000-0  00000+0 0  2426
2 16527 069.9693 005.3997 5414122 166.2574 239.5157 02.00695002203188
